start=new Date('2022-06-04T00:00:00.000Z').valueOf();
sats=[{"RCS_SIZE":"LARGE","LAUNCH_DATE":"2020-01-29","REF_FRAME":"TEME","NORAD_CAT_ID":"45096","SEMIMAJOR_AXIS":"6925.327","MEAN_MOTION":"15.06407146","MEAN_MOTION_DOT":"0.00000401","RA_OF_ASC_NODE":"299.5166","MEAN_MOTION_DDOT":"0.0000000000000","TLE_LINE2":"2 45096  53.0545 299.5166 0001741  65.5476 294.5694 15.06407146129760","PERIAPSIS":"545.986","OBJECT_ID":"2020-006BE","INCLINATION":"53.0545","MEAN_ANOMALY":"294.5694","COUNTRY_CODE":"US","PERIOD":"95.592","ELEMENT_SET_NO":"999","REV_AT_EPOCH":"12976","MEAN_ELEMENT_THEORY":"SGP4","FILE":"3479630","TLE_LINE1":"1 45096U 20006BE  22154.62658391  .00000401  00000-0  45848-4 0  9994","CENTER_NAME":"EARTH","OBJECT_TYPE":"PAYLOAD","GP_ID":"205294329","CLASSIFICATION_TYPE":"U","ECCENTRICITY":"0.00017410","EPHEMERIS_TYPE":"0","OBJECT_NAME":"STARLINK-1152","SITE":"AFETR","DECAY_DATE":null,"APOAPSIS":"548.397","BSTAR":"0.00004584800000","ARG_OF_PERICENTER":"65.5476","EPOCH":"2022-06-03T15:02:16.849824","TIME_SYSTEM":"UTC"},{"OBJECT_ID":"2020-006BG","PERIAPSIS":"546.278","TLE_LINE2":"2 45098  53.0538 298.7061 0001328  73.8059 286.3076 15.06405243129791","MEAN_MOTION_DDOT":"0.0000000000000","RA_OF_ASC_NODE":"298.7061","MEAN_MOTION_DOT":"-0.00001432","SEMIMAJOR_AXIS":"6925.332","MEAN_MOTION":"15.06405243","NORAD_CAT_ID":"45098","REF_FRAME":"TEME","LAUNCH_DATE":"2020-01-29","RCS_SIZE":"LARGE","TIME_SYSTEM":"UTC","EPOCH":"2022-06-03T19:22:22.663200","ARG_OF_PERICENTER":"73.8059","DECAY_DATE":null,"SITE":"AFETR","APOAPSIS":"548.117","BSTAR":"-0.00007723800000","OBJECT_NAME":"STARLINK-1184","ECCENTRICITY":"0.00013280","EPHEMERIS_TYPE":"0","CLASSIFICATION_TYPE":"U","OBJECT_TYPE":"PAYLOAD","GP_ID":"205294579","CENTER_NAME":"EARTH","FILE":"3479630","TLE_LINE1":"1 45098U 20006BG  22154.80720675 -.00001432  00000-0 -77238-4 0  9996","MEAN_ELEMENT_THEORY":"SGP4","REV_AT_EPOCH":"12979","ELEMENT_SET_NO":"999","PERIOD":"95.592","COUNTRY_CODE":"US","MEAN_ANOMALY":"286.3076","INCLINATION":"53.0538"},{"PERIAPSIS":"545.994","OBJECT_ID":"2020-006BH","RA_OF_ASC_NODE":"299.7624","TLE_LINE2":"2 45099  53.0553 299.7624 0001764  64.9365 295.1807 15.06399212129765","MEAN_MOTION_DDOT":"0.0000000000000","MEAN_MOTION_DOT":"0.00000363","SEMIMAJOR_AXIS":"6925.351","MEAN_MOTION":"15.06399212","NORAD_CAT_ID":"45099","REF_FRAME":"TEME","RCS_SIZE":"LARGE","LAUNCH_DATE":"2020-01-29","EPOCH":"2022-06-03T13:47:59.505792","ARG_OF_PERICENTER":"64.9365","TIME_SYSTEM":"UTC","OBJECT_NAME":"STARLINK-1186","ECCENTRICITY":"0.00017640","EPHEMERIS_TYPE":"0","SITE":"AFETR","DECAY_DATE":null,"BSTAR":"0.00004330200000","APOAPSIS":"548.438","CENTER_NAME":"EARTH","CLASSIFICATION_TYPE":"U","OBJECT_TYPE":"PAYLOAD","GP_ID":"205295830","MEAN_ELEMENT_THEORY":"SGP4","TLE_LINE1":"1 45099U 20006BH  22154.57499428  .00000363  00000-0  43302-4 0  9995","FILE":"3479630","REV_AT_EPOCH":"12976","ELEMENT_SET_NO":"999","PERIOD":"95.592","MEAN_ANOMALY":"295.1807","INCLINATION":"53.0553","COUNTRY_CODE":"US"},{"PERIAPSIS":"546.042","OBJECT_ID":"2020-006BJ","RA_OF_ASC_NODE":"298.7285","TLE_LINE2":"2 45100  53.0563 298.7285 0001671  62.6351 297.4808 15.06404667129798","MEAN_MOTION_DDOT":"0.0000000000000","SEMIMAJOR_AXIS":"6925.334","MEAN_MOTION_DOT":"-0.00000870","MEAN_MOTION":"15.06404667","NORAD_CAT_ID":"45100","REF_FRAME":"TEME","RCS_SIZE":"LARGE","LAUNCH_DATE":"2020-01-29","EPOCH":"2022-06-03T19:17:04.336224","ARG_OF_PERICENTER":"62.6351","TIME_SYSTEM":"UTC","EPHEMERIS_TYPE":"0","ECCENTRICITY":"0.00016710","OBJECT_NAME":"STARLINK-1193","SITE":"AFETR","DECAY_DATE":null,"BSTAR":"-0.00003951600000","APOAPSIS":"548.356","CENTER_NAME":"EARTH","GP_ID":"205295581","OBJECT_TYPE":"PAYLOAD","CLASSIFICATION_TYPE":"U","MEAN_ELEMENT_THEORY":"SGP4","TLE_LINE1":"1 45100U 20006BJ  22154.80352241 -.00000870  00000-0 -39516-4 0  9992","FILE":"3479630","REV_AT_EPOCH":"12979","PERIOD":"95.592","ELEMENT_SET_NO":"999","INCLINATION":"53.0563","MEAN_ANOMALY":"297.4808","COUNTRY_CODE":"US"},{"ARG_OF_PERICENTER":"75.4355","EPOCH":"2022-06-03T20:46:16.362624","TIME_SYSTEM":"UTC","ECCENTRICITY":"0.00016660","EPHEMERIS_TYPE":"0","OBJECT_NAME":"STARLINK-1194","DECAY_DATE":null,"SITE":"AFETR","BSTAR":"0.00025787000000","APOAPSIS":"547.567","CENTER_NAME":"EARTH","OBJECT_TYPE":"PAYLOAD","GP_ID":"205294829","CLASSIFICATION_TYPE":"U","MEAN_ELEMENT_THEORY":"SGP4","TLE_LINE1":"1 45101U 20006BK  22154.86546716  .00003588  00000-0  25787-3 0  9992","FILE":"3479630","REV_AT_EPOCH":"12980","PERIOD":"95.576","ELEMENT_SET_NO":"999","INCLINATION":"53.0556","MEAN_ANOMALY":"284.6818","COUNTRY_CODE":"US","PERIAPSIS":"545.260","OBJECT_ID":"2020-006BK","RA_OF_ASC_NODE":"298.4249","MEAN_MOTION_DDOT":"0.0000000000000","TLE_LINE2":"2 45101  53.0556 298.4249 0001666  75.4355 284.6818 15.06661067129808","SEMIMAJOR_AXIS":"6924.549","MEAN_MOTION_DOT":"0.00003588","MEAN_MOTION":"15.06661067","NORAD_CAT_ID":"45101","REF_FRAME":"TEME","RCS_SIZE":"LARGE","LAUNCH_DATE":"2020-01-29"},{"CENTER_NAME":"EARTH","CLASSIFICATION_TYPE":"U","OBJECT_TYPE":"PAYLOAD","GP_ID":"205295079","OBJECT_NAME":"STARLINK-1195","EPHEMERIS_TYPE":"0","ECCENTRICITY":"0.00015380","SITE":"AFETR","DECAY_DATE":null,"BSTAR":"0.00007231900000","APOAPSIS":"548.271","EPOCH":"2022-06-03T19:43:36.034176","ARG_OF_PERICENTER":"75.9335","TIME_SYSTEM":"UTC","MEAN_ANOMALY":"284.1825","INCLINATION":"53.0556","COUNTRY_CODE":"US","ELEMENT_SET_NO":"999","PERIOD":"95.592","REV_AT_EPOCH":"12979","MEAN_ELEMENT_THEORY":"SGP4","FILE":"3479630","TLE_LINE1":"1 45102U 20006BL  22154.82194484  .00000796  00000-0  72319-4 0  9992","MEAN_MOTION":"15.06402412","SEMIMAJOR_AXIS":"6925.341","MEAN_MOTION_DOT":"0.00000796","RA_OF_ASC_NODE":"298.6447","MEAN_MOTION_DDOT":"0.0000000000000","TLE_LINE2":"2 45102  53.0556 298.6447 0001538  75.9335 284.1825 15.06402412129790","PERIAPSIS":"546.141","OBJECT_ID":"2020-006BL","RCS_SIZE":"LARGE","LAUNCH_DATE":"2020-01-29","REF_FRAME":"TEME","NORAD_CAT_ID":"45102"},{"TIME_SYSTEM":"UTC","EPOCH":"2022-06-03T20:30:00.900576","ARG_OF_PERICENTER":"92.1275","DECAY_DATE":null,"BSTAR":"0.00009495700000","SITE":"AFETR","APOAPSIS":"548.127","OBJECT_NAME":"STARLINK-1196","ECCENTRICITY":"0.00013200","EPHEMERIS_TYPE":"0","CLASSIFICATION_TYPE":"U","GP_ID":"205295331","OBJECT_TYPE":"PAYLOAD","CENTER_NAME":"EARTH","FILE":"3479630","TLE_LINE1":"1 45103U 20006BM  22154.85417709  .00001133  00000-0  94957-4 0  9992","MEAN_ELEMENT_THEORY":"SGP4","REV_AT_EPOCH":"12980","ELEMENT_SET_NO":"999","PERIOD":"95.592","COUNTRY_CODE":"US","MEAN_ANOMALY":"267.9865","INCLINATION":"53.0507","OBJECT_ID":"2020-006BM","PERIAPSIS":"546.299","MEAN_MOTION_DDOT":"0.0000000000000","TLE_LINE2":"2 45103  53.0507 298.5274 0001320  92.1275 267.9865 15.06400269129800","RA_OF_ASC_NODE":"298.5274","SEMIMAJOR_AXIS":"6925.348","MEAN_MOTION":"15.06400269","MEAN_MOTION_DOT":"0.00001133","NORAD_CAT_ID":"45103","REF_FRAME":"TEME","LAUNCH_DATE":"2020-01-29","RCS_SIZE":"LARGE"},{"NORAD_CAT_ID":"45178","REF_FRAME":"TEME","RCS_SIZE":"LARGE","LAUNCH_DATE":"2020-02-17","PERIAPSIS":"545.902","OBJECT_ID":"2020-012A","RA_OF_ASC_NODE":"98.5662","TLE_LINE2":"2 45178  53.0569  98.5662 0001924  56.8190 303.2983 15.06393157127554","MEAN_MOTION_DDOT":"0.0000000000000","MEAN_MOTION_DOT":"0.00000317","SEMIMAJOR_AXIS":"6925.370","MEAN_MOTION":"15.06393157","MEAN_ELEMENT_THEORY":"SGP4","FILE":"3479630","TLE_LINE1":"1 45178U 20012A   22154.84037809  .00000317  00000-0  40169-4 0  9998","REV_AT_EPOCH":"12755","PERIOD":"95.593","ELEMENT_SET_NO":"999","INCLINATION":"53.0569","MEAN_ANOMALY":"303.2983","COUNTRY_CODE":"US","EPOCH":"2022-06-03T20:10:08.666976","ARG_OF_PERICENTER":"56.8190","TIME_SYSTEM":"UTC","ECCENTRICITY":"0.00019240","EPHEMERIS_TYPE":"0","OBJECT_NAME":"STARLINK-1138","SITE":"AFETR","DECAY_DATE":null,"BSTAR":"0.00004016900000","APOAPSIS":"548.567","CENTER_NAME":"EARTH","GP_ID":"205294337","OBJECT_TYPE":"PAYLOAD","CLASSIFICATION_TYPE":"U"},{"MEAN_MOTION":"15.06391037","SEMIMAJOR_AXIS":"6925.376","MEAN_MOTION_DOT":"-0.00000162","OBJECT_ID":"2020-012B","PERIAPSIS":"545.848","TLE_LINE2":"2 45179  53.0551  98.5299 0002011  57.4230 302.6953 15.06391037126961","MEAN_MOTION_DDOT":"0.0000000000000","RA_OF_ASC_NODE":"98.5299","REF_FRAME":"TEME","LAUNCH_DATE":"2020-02-17","RCS_SIZE":"LARGE","NORAD_CAT_ID":"45179","CLASSIFICATION_TYPE":"U","OBJECT_TYPE":"PAYLOAD","GP_ID":"205271600","CENTER_NAME":"EARTH","TIME_SYSTEM":"UTC","EPOCH":"2022-06-03T20:15:27.067392","ARG_OF_PERICENTER":"57.4230","SITE":"AFETR","DECAY_DATE":null,"APOAPSIS":"548.634","BSTAR":"0.00000804350000","OBJECT_NAME":"STARLINK-1143","EPHEMERIS_TYPE":"0","ECCENTRICITY":"0.00020110","ELEMENT_SET_NO":"999","PERIOD":"95.593","COUNTRY_CODE":"US","MEAN_ANOMALY":"302.6953","INCLINATION":"53.0551","TLE_LINE1":"1 45179U 20012B   22154.84406328 -.00000162  00000-0  80435-5 0  9995","FILE":"3479425","MEAN_ELEMENT_THEORY":"SGP4","REV_AT_EPOCH":"12696"},{"NORAD_CAT_ID":"45180","RCS_SIZE":"LARGE","LAUNCH_DATE":"2020-02-17","REF_FRAME":"TEME","RA_OF_ASC_NODE":"98.9027","TLE_LINE2":"2 45180  53.0526  98.9027 0002285  43.3072 316.8097 15.09150366127585","MEAN_MOTION_DDOT":"0.0000000000000","PERIAPSIS":"537.216","OBJECT_ID":"2020-012C","SEMIMAJOR_AXIS":"6916.932","MEAN_MOTION_DOT":"0.00008158","MEAN_MOTION":"15.09150366","REV_AT_EPOCH":"12758","MEAN_ELEMENT_THEORY":"SGP4","TLE_LINE1":"1 45180U 20012C   22154.54466691  .00008158  00000-0  52563-3 0  9994","FILE":"3479192","INCLINATION":"53.0526","MEAN_ANOMALY":"316.8097","COUNTRY_CODE":"US","PERIOD":"95.418","ELEMENT_SET_NO":"999","EPHEMERIS_TYPE":"0","ECCENTRICITY":"0.00022850","OBJECT_NAME":"STARLINK-1192","DECAY_DATE":null,"SITE":"AFETR","APOAPSIS":"540.377","BSTAR":"0.00052563000000","EPOCH":"2022-06-03T13:04:19.221024","ARG_OF_PERICENTER":"43.3072","TIME_SYSTEM":"UTC","CENTER_NAME":"EARTH","OBJECT_TYPE":"PAYLOAD","GP_ID":"205260784","CLASSIFICATION_TYPE":"U"}];
